{
  "type": "FeatureCollection",
  "features": [
    {
      "type": "Feature",
      "properties": {
        "norad_id": 36074,
        "name": "COSMOS 2251 DEB",
        "group": "cosmos-2251-debris",
        "lat": -68.55779396975328,
        "lon": -175.95380699475157,
        "alt_km": 778.6509835631368,
        "timestamp": "2025-12-25T07:00:34.445416+00:00",
        "meta_object_name": "COSMOS 2251 DEB",
        "meta_object_id": "1993-036AYM",
        "meta_epoch": "2025-12-22T22:57:11.517120",
        "meta_mean_motion": 14.43796912,
        "meta_eccentricity": 0.0041956,
        "meta_inclination": 73.994,
        "meta_ra_of_asc_node": 321.4388,
        "meta_arg_of_pericenter": 50.2945,
        "meta_mean_anomaly": 310.1898,
        "meta_ephemeris_type": 0,
        "meta_classification_type": "U",
        "meta_norad_cat_id": 36074,
        "meta_element_set_no": 999,
        "meta_rev_at_epoch": 86057,
        "meta_bstar": 0.001160749,
        "meta_mean_motion_dot": 3.969e-05,
        "meta_mean_motion_ddot": 0,
        "tle_line1": "1 36074U 93036AYM 25356.95638330  .00003969  00000+0  11607-2 0  9992",
        "tle_line2": "2 36074  73.9940 321.4388 0041956  50.2945 310.1898 14.43796912860575"
      },
      "geometry": {
        "type": "Point",
        "coordinates": [
          -175.95380699475157,
          -68.55779396975328
        ]
      }
    },
    {
      "type": "Feature",
      "properties": {
        "norad_id": 36366,
        "name": "COSMOS 2251 DEB",
        "group": "cosmos-2251-debris",
        "lat": 73.10725883539243,
        "lon": -39.66517611507405,
        "alt_km": 836.0606859598729,
        "timestamp": "2025-12-25T07:00:34.445426+00:00",
        "meta_object_name": "COSMOS 2251 DEB",
        "meta_object_id": "1993-036AYT",
        "meta_epoch": "2025-12-21T17:11:32.767008",
        "meta_mean_motion": 14.33460542,
        "meta_eccentricity": 0.00902396,
        "meta_inclination": 74.0657,
        "meta_ra_of_asc_node": 256.6822,
        "meta_arg_of_pericenter": 283.124,
        "meta_mean_anomaly": 75.9853,
        "meta_ephemeris_type": 0,
        "meta_classification_type": "U",
        "meta_norad_cat_id": 36366,
        "meta_element_set_no": 999,
        "meta_rev_at_epoch": 86417,
        "meta_bstar": 0.0010533139,
        "meta_mean_motion_dot": 3.019e-05,
        "meta_mean_motion_ddot": 0,
        "tle_line1": "1 36366U 93036AYT 25355.71635147  .00003019  00000+0  10533-2 0  9995",
        "tle_line2": "2 36366  74.0657 256.6822 0090239 283.1240  75.9853 14.33460542864174"
      },
      "geometry": {
        "type": "Point",
        "coordinates": [
          -39.66517611507405,
          73.10725883539243
        ]
      }
    },
    {
      "type": "Feature",
      "properties": {
        "norad_id": 36367,
        "name": "COSMOS 2251 DEB",
        "group": "cosmos-2251-debris",
        "lat": 25.999613343867768,
        "lon": 22.256231284224615,
        "alt_km": 1053.5575043140088,
        "timestamp": "2025-12-25T07:00:34.445436+00:00",
        "meta_object_name": "COSMOS 2251 DEB",
        "meta_object_id": "1993-036AYU",
        "meta_epoch": "2025-12-24T07:44:10.721184",
        "meta_mean_motion": 13.86386722,
        "meta_eccentricity": 0.02617345,
        "meta_inclination": 74.0995,
        "meta_ra_of_asc_node": 211.8828,
        "meta_arg_of_pericenter": 282.2009,
        "meta_mean_anomaly": 74.9918,
        "meta_ephemeris_type": 0,
        "meta_classification_type": "U",
        "meta_norad_cat_id": 36367,
        "meta_element_set_no": 999,
        "meta_rev_at_epoch": 57690,
        "meta_bstar": 0.0017134049,
        "meta_mean_motion_dot": 2.573e-05,
        "meta_mean_motion_ddot": 0,
        "tle_line1": "1 36367U 93036AYU 25358.32234631  .00002573  00000+0  17134-2 0  9997",
        "tle_line2": "2 36367  74.0995 211.8828 0261734 282.2009  74.9918 13.86386722576908"
      },
      "geometry": {
        "type": "Point",
        "coordinates": [
          22.256231284224615,
          25.999613343867768
        ]
      }
    },
    {
      "type": "Feature",
      "properties": {
        "norad_id": 36369,
        "name": "COSMOS 2251 DEB",
        "group": "cosmos-2251-debris",
        "lat": -59.17430834940076,
        "lon": 17.57118792109396,
        "alt_km": 663.3300529880989,
        "timestamp": "2025-12-25T07:00:34.445446+00:00",
        "meta_object_name": "COSMOS 2251 DEB",
        "meta_object_id": "1993-036AYW",
        "meta_epoch": "2025-12-21T10:25:50.498400",
        "meta_mean_motion": 14.73682344,
        "meta_eccentricity": 0.0010476,
        "meta_inclination": 74.0314,
        "meta_ra_of_asc_node": 53.7689,
        "meta_arg_of_pericenter": 128.4088,
        "meta_mean_anomaly": 231.8027,
        "meta_ephemeris_type": 0,
        "meta_classification_type": "U",
        "meta_norad_cat_id": 36369,
        "meta_element_set_no": 999,
        "meta_rev_at_epoch": 86050,
        "meta_bstar": 0.00084133,
        "meta_mean_motion_dot": 5.466e-05,
        "meta_mean_motion_ddot": 0,
        "tle_line1": "1 36369U 93036AYW 25355.43461225  .00005466  00000+0  84133-3 0  9997",
        "tle_line2": "2 36369  74.0314  53.7689 0010476 128.4088 231.8027 14.73682344860509"
      },
      "geometry": {
        "type": "Point",
        "coordinates": [
          17.57118792109396,
          -59.17430834940076
        ]
      }
    },
    {
      "type": "Feature",
      "properties": {
        "norad_id": 36371,
        "name": "COSMOS 2251 DEB",
        "group": "cosmos-2251-debris",
        "lat": 68.10172293440762,
        "lon": -177.3668225366409,
        "alt_km": 652.485544386599,
        "timestamp": "2025-12-25T07:00:34.445457+00:00",
        "meta_object_name": "COSMOS 2251 DEB",
        "meta_object_id": "1993-036AYY",
        "meta_epoch": "2025-12-24T15:58:44.173920",
        "meta_mean_motion": 14.70864576,
        "meta_eccentricity": 0.00085465,
        "meta_inclination": 74.0132,
        "meta_ra_of_asc_node": 138.3528,
        "meta_arg_of_pericenter": 177.886,
        "meta_mean_anomaly": 182.2349,
        "meta_ephemeris_type": 0,
        "meta_classification_type": "U",
        "meta_norad_cat_id": 36371,
        "meta_element_set_no": 999,
        "meta_rev_at_epoch": 71620,
        "meta_bstar": 0.0022493193,
        "meta_mean_motion_dot": 0.00013763,
        "meta_mean_motion_ddot": 0,
        "tle_line1": "1 36371U 93036AYY 25358.66578905  .00013763  00000+0  22493-2 0  9991",
        "tle_line2": "2 36371  74.0132 138.3528 0008546 177.8860 182.2349 14.70864576716202"
      },
      "geometry": {
        "type": "Point",
        "coordinates": [
          -177.3668225366409,
          68.10172293440762
        ]
      }
    },
    {
      "type": "Feature",
      "properties": {
        "norad_id": 36379,
        "name": "COSMOS 2251 DEB",
        "group": "cosmos-2251-debris",
        "lat": 61.51325089432661,
        "lon": 71.85463102936143,
        "alt_km": 751.2073833504874,
        "timestamp": "2025-12-25T07:00:34.445467+00:00",
        "meta_object_name": "COSMOS 2251 DEB",
        "meta_object_id": "1993-036AZG",
        "meta_epoch": "2025-12-21T02:14:38.502816",
        "meta_mean_motion": 14.36091919,
        "meta_eccentricity": 0.00448164,
        "meta_inclination": 74.0129,
        "meta_ra_of_asc_node": 291.4624,
        "meta_arg_of_pericenter": 57.9805,
        "meta_mean_anomaly": 317.791,
        "meta_ephemeris_type": 0,
        "meta_classification_type": "U",
        "meta_norad_cat_id": 36379,
        "meta_element_set_no": 999,
        "meta_rev_at_epoch": 64948,
        "meta_bstar": 0.00021634378,
        "meta_mean_motion_dot": 6.11e-06,
        "meta_mean_motion_ddot": 0,
        "tle_line1": "1 36379U 93036AZG 25355.09350119  .00000611  00000+0  21634-3 0  9993",
        "tle_line2": "2 36379  74.0129 291.4624 0044816  57.9805 317.7910 14.36091919649480"
      },
      "geometry": {
        "type": "Point",
        "coordinates": [
          71.85463102936143,
          61.51325089432661
        ]
      }
    },
    {
      "type": "Feature",
      "properties": {
        "norad_id": 36385,
        "name": "COSMOS 2251 DEB",
        "group": "cosmos-2251-debris",
        "lat": -73.11192283101225,
        "lon": 58.730147429078045,
        "alt_km": 569.7071416739036,
        "timestamp": "2025-12-25T07:00:34.445477+00:00",
        "meta_object_name": "COSMOS 2251 DEB",
        "meta_object_id": "1993-036AZN",
        "meta_epoch": "2025-12-20T19:47:03.334560",
        "meta_mean_motion": 14.72696016,
        "meta_eccentricity": 0.01415357,
        "meta_inclination": 73.9698,
        "meta_ra_of_asc_node": 138.7285,
        "meta_arg_of_pericenter": 311.3318,
        "meta_mean_anomaly": 47.5743,
        "meta_ephemeris_type": 0,
        "meta_classification_type": "U",
        "meta_norad_cat_id": 36385,
        "meta_element_set_no": 999,
        "meta_rev_at_epoch": 85221,
        "meta_bstar": 0.0008039038,
        "meta_mean_motion_dot": 5.978e-05,
        "meta_mean_motion_ddot": 0,
        "tle_line1": "1 36385U 93036AZN 25354.82434415  .00005978  00000+0  80390-3 0  9997",
        "tle_line2": "2 36385  73.9698 138.7285 0141535 311.3318  47.5743 14.72696016852212"
      },
      "geometry": {
        "type": "Point",
        "coordinates": [
          58.730147429078045,
          -73.11192283101225
        ]
      }
    }
  ]
}